BEIDOU-3 G3             
1 45807U 20040A   26064.03458959 -.00000362  00000+0  00000+0 0  9991
2 45807   2.1916  67.1263 0004366 316.8797 261.7048  1.00275152 21026
GALAXY 30 (G-30)        
1 46114U 20056C   26064.27318398  .00000000  00000+0  00000+0 0  9996
2 46114   0.0228 160.9213 0002065 191.7050 143.7425  1.00271117 20253
QZS-1R (MICHIBIKI-1R)   
1 49336U 21096A   26063.94141958 -.00000263  00000+0  00000+0 0  9991
2 49336  37.2450  81.1219 0747520 269.7237 284.8903  1.00291077 15963
QZS-6 (MICHIBIKI-6)     
1 62876U 25023A   26064.17614138 -.00000241  00000+0  00000+0 0  9996
2 62876   0.0420 307.5443 0001853  32.2297 337.0408  1.00269990  3919
