[{"OBJECT_NAME":"BEIDOU-3 G3 (PRN 143)","OBJECT_ID":"2020-040A","EPOCH":"2026-03-05T00:49:48.540576","MEAN_MOTION":1.00275152,"ECCENTRICITY":0.00043666,"INCLINATION":2.1916,"RA_OF_ASC_NODE":67.1263,"ARG_OF_PERICENTER":316.8797,"MEAN_ANOMALY":261.7048,"EPHEMERIS_TYPE":0,"CLASSIFICATION_TYPE":"U","NORAD_CAT_ID":45807,"ELEMENT_SET_NO":999,"REV_AT_EPOCH":2102,"BSTAR":0,"MEAN_MOTION_DOT":-3.62e-6,"MEAN_MOTION_DDOT":0},{"OBJECT_NAME":"GALAXY 30 (WAAS/PRN 135)","OBJECT_ID":"2020-056C","EPOCH":"2026-03-05T06:33:23.095872","MEAN_MOTION":1.00271117,"ECCENTRICITY":0.00020654,"INCLINATION":0.0228,"RA_OF_ASC_NODE":160.9213,"ARG_OF_PERICENTER":191.705,"MEAN_ANOMALY":143.7425,"EPHEMERIS_TYPE":0,"CLASSIFICATION_TYPE":"U","NORAD_CAT_ID":46114,"ELEMENT_SET_NO":999,"REV_AT_EPOCH":2025,"BSTAR":0,"MEAN_MOTION_DOT":0,"MEAN_MOTION_DDOT":0},{"OBJECT_NAME":"QZS-1R (QZSS/PRN 196)","OBJECT_ID":"2021-096A","EPOCH":"2026-03-04T22:35:38.651712","MEAN_MOTION":1.00291077,"ECCENTRICITY":0.07475207,"INCLINATION":37.245,"RA_OF_ASC_NODE":81.1219,"ARG_OF_PERICENTER":269.7237,"MEAN_ANOMALY":284.8903,"EPHEMERIS_TYPE":0,"CLASSIFICATION_TYPE":"U","NORAD_CAT_ID":49336,"ELEMENT_SET_NO":999,"REV_AT_EPOCH":1596,"BSTAR":0,"MEAN_MOTION_DOT":-2.63e-6,"MEAN_MOTION_DDOT":0},{"OBJECT_NAME":"QZS-6 (QZSS/PRN 200)","OBJECT_ID":"2025-023A","EPOCH":"2026-03-05T04:13:38.615232","MEAN_MOTION":1.0026999,"ECCENTRICITY":0.00018531,"INCLINATION":0.042,"RA_OF_ASC_NODE":307.5443,"ARG_OF_PERICENTER":32.2297,"MEAN_ANOMALY":337.0408,"EPHEMERIS_TYPE":0,"CLASSIFICATION_TYPE":"U","NORAD_CAT_ID":62876,"ELEMENT_SET_NO":999,"REV_AT_EPOCH":391,"BSTAR":0,"MEAN_MOTION_DOT":-2.41e-6,"MEAN_MOTION_DDOT":0}]
